[{"OBJECT_NAME":"TRANSPORTER-10 OBJECT AD","OBJECT_ID":"2024-043AD","EPOCH":"2026-03-09T20:38:52.416960","MEAN_MOTION":15.34189901,"ECCENTRICITY":0.00089841,"INCLINATION":97.547,"RA_OF_ASC_NODE":207.3753,"ARG_OF_PERICENTER":221.4908,"MEAN_ANOMALY":138.5653,"EPHEMERIS_TYPE":0,"CLASSIFICATION_TYPE":"U","NORAD_CAT_ID":59125,"ELEMENT_SET_NO":999,"REV_AT_EPOCH":11202,"BSTAR":0.00036310552,"MEAN_MOTION_DOT":0.00011954,"MEAN_MOTION_DDOT":0},{"OBJECT_NAME":"STARLINK-31586","OBJECT_ID":"2024-046E","EPOCH":"2026-03-09T12:27:01.617408","MEAN_MOTION":15.30192497,"ECCENTRICITY":9.933e-5,"INCLINATION":53.16,"RA_OF_ASC_NODE":156.1146,"ARG_OF_PERICENTER":99.6292,"MEAN_ANOMALY":260.4821,"EPHEMERIS_TYPE":0,"CLASSIFICATION_TYPE":"U","NORAD_CAT_ID":59205,"ELEMENT_SET_NO":999,"REV_AT_EPOCH":11302,"BSTAR":3.5674838e-5,"MEAN_MOTION_DOT":6.97e-6,"MEAN_MOTION_DDOT":0}]
